0 SL-8 DEB *
1 03965U 65020EY  13285.80865450  .00000317  00000-0  32724-2 0  3356
2 03965 056.3012 064.3766 0251549 276.9060 234.2853 12.25891660181647
0 SL-8 DEB *
1 03965U 65020EY  13288.82868093  .00000418  00000-0  40865-2 0  3365
2 03965 056.3011 056.6278 0252251 280.6299 242.3440 12.25893636182014
0 SL-8 DEB *
1 03965U 65020EY  13292.38796087  .00000425  00000-0  41389-2 0  3375
2 03965 056.3010 047.4966 0253254 285.0209 110.2748 12.25897433182450
0 SL-8 DEB *
1 03965U 65020EY  13295.32242619  .00000436  00000-0  42259-2 0  3389
2 03965 056.3015 039.9686 0252955 288.7420 100.6856 12.25900288182818
